STARLINK-4400           
1 53468U 22099D   25083.59931339  .00015628  00000+0  12179-2 0  9991
2 53468  97.6530 206.4328 0002167 105.2801 254.8663 15.01282327143694
STARLINK-4399           
1 53469U 22099E   25083.79531926  .00003436  00000+0  27195-3 0  9991
2 53469  97.6536 206.6301 0001273  87.2135 272.9235 15.01264727143487
STARLINK-4393           
1 53470U 22099F   25083.33060607 -.00000508  00000+0 -34999-4 0  9996
2 53470  97.6547 206.1675 0001178  94.0065 266.1294 15.01254873143652
STARLINK-4316           
1 53471U 22099G   25083.59166356  .00018635  00000+0  14505-2 0  9990
2 53471  97.6532 206.4245 0001559 106.3299 253.8096 15.01288488143452
STARLINK-4383           
1 53473U 22099J   25083.58795862  .00009909  00000+0  77494-3 0  9992
2 53473  97.6532 206.4145 0000720  94.8601 265.2706 15.01260589143693
STARLINK-4389           
1 53475U 22099L   25083.58610415  .00001915  00000+0  15366-3 0  9993
2 53475  97.6537 206.4108 0001154 108.4451 251.6898 15.01262557144156
STARLINK-4378           
1 53476U 22099M   25083.58980788  .00002738  00000+0  21770-3 0  9997
2 53476  97.6532 206.4175 0001335 104.3020 255.8352 15.01261684143693
STARLINK-4412           
1 53477U 22099N   25083.60093953  .00015433  00000+0  12029-2 0  9992
2 53477  97.6562 206.3901 0001684  87.0119 273.1298 15.01279109143699
STARLINK-4433           
1 53478U 22099P   25084.04896485  .00007859  00000+0  61564-3 0  9995
2 53478  97.6530 206.8798 0000071 212.2363 147.8857 15.01270667143762
STARLINK-4436           
1 53479U 22099Q   25083.78074924  .00016971  00000+0  13224-2 0  9996
2 53479  97.6534 206.6020 0001702 257.7222 102.3812 15.01268940143480
STARLINK-4442           
1 53480U 22099R   25083.91751485  .00004774  00000+0  37593-3 0  9991
2 53480  97.6531 206.7361 0000523 174.1596 185.9635 15.01270320143502
STARLINK-4302           
1 53481U 22099S   25083.77865050  .00011317  00000+0  88391-3 0  9993
2 53481  97.6531 206.5989 0002748 262.9707  97.1204 15.01274238143483
STARLINK-4360           
1 53482U 22099T   25083.30097266  .00008651  00000+0  67722-3 0  9991
2 53482  97.6539 206.1535 0003778 243.2149 116.8689 15.01260075143414
STARLINK-4401           
1 53483U 22099U   25082.89920699 -.00021608  00000+0 -16802-2 0  9991
2 53483  97.6549 205.7500 0005720 216.4370 143.6466 15.01305869143591
STARLINK-4426           
1 53484U 22099V   25083.77679524  .00001669  00000+0  13445-3 0  9992
2 53484  97.6535 206.5965 0003196 250.3030 109.7849 15.01271299143481
STARLINK-4431           
1 53486U 22099X   25083.77494756  .00012878  00000+0  10051-2 0  9999
2 53486  97.6535 206.5946 0002197 249.3573 110.7416 15.01269085143484
STARLINK-4432           
1 53487U 22099Y   25083.57523478  .00009653  00000+0  75488-3 0  9995
2 53487  97.6534 206.3800 0004510 233.8765 126.2043 15.01263867143696
STARLINK-4421           
1 53488U 22099Z   25083.66668981  .00085056  00000+0  65526-2 0  9997
2 53488  97.6538 206.4875 0003172 237.7957 267.5934 15.01226465  5725
STARLINK-4392           
1 53489U 22099AA  25083.57338534  .00011219  00000+0  87658-3 0  9997
2 53489  97.6533 206.3776 0003683 240.8875 119.1981 15.01259443143696
STARLINK-4387           
1 53490U 22099AB  25083.30121756 -.00001846  00000+0 -13914-3 0  9997
2 53490  97.6539 206.1284 0003446 227.9940 132.0991 15.01256195143654
STARLINK-4450           
1 53491U 22099AC  25083.75851235 -.00007151  00000+0 -55233-3 0  9994
2 53491  97.6572 206.5979 0000789 260.7635  99.3500 15.01286011143482
STARLINK-4451           
1 53492U 22099AD  25083.29727508 -.00001137  00000+0 -83930-4 0  9993
2 53492  97.6556 206.1326 0001608 248.4019 111.7034 15.01262613143413
STARLINK-4361           
1 53493U 22099AE  25083.29542207 -.00001824  00000+0 -13744-3 0  9993
2 53493  97.6586 206.1220 0002585 222.6177 137.4847 15.01253753143416
STARLINK-4340           
1 53494U 22099AF  25082.89945596 -.00001590  00000+0 -11921-3 0  9992
2 53494  97.6537 205.7297 0002387 226.1844 133.9183 15.01261766143352
STARLINK-4429           
1 53495U 22099AG  25083.62312614 -.00001541  00000+0 -11537-3 0  9993
2 53495  97.6576 206.4577 0001431 255.7846 104.3219 15.01270005143712
STARLINK-4465           
1 53496U 22099AH  25083.29357745 -.00002153  00000+0 -16312-3 0  9997
2 53496  97.6557 206.1312 0001266 203.6461 156.4706 15.01258204143656
