"OBJECT_NAME","OBJECT_ID","EPOCH","MEAN_MOTION","ECCENTRICITY","INCLINATION","RA_OF_ASC_NODE","ARG_OF_PERICENTER","MEAN_ANOMALY","EPHEMERIS_TYPE","CLASSIFICATION_TYPE","NORAD_CAT_ID","ELEMENT_SET_NO","REV_AT_EPOCH","BSTAR","MEAN_MOTION_DOT","MEAN_MOTION_DDOT"
"STARLINK-4400","2022-099D","2025-03-24T14:23:00.676896",15.01282327,0.0002167,97.653,206.4328,105.2801,254.8663,0,"U",53468,999,14369,0.0012179,0.00015628,0
"STARLINK-4399","2022-099E","2025-03-24T19:05:15.584064",15.01264727,0.0001273,97.6536,206.6301,87.2135,272.9235,0,"U",53469,999,14348,0.00027195,0.00003436,0
"STARLINK-4393","2022-099F","2025-03-24T07:56:04.364448",15.01254873,0.0001178,97.6547,206.1675,94.0065,266.1294,0,"U",53470,999,14365,-0.000034999,-0.00000508,0
"STARLINK-4316","2022-099G","2025-03-24T14:11:59.731584",15.01288488,0.0001559,97.6532,206.4245,106.3299,253.8096,0,"U",53471,999,14345,0.0014505,0.00018635,0
"STARLINK-4383","2022-099J","2025-03-24T14:06:39.624768",15.01260589,0.000072,97.6532,206.4145,94.8601,265.2706,0,"U",53473,999,14369,0.00077494,0.00009909,0
"STARLINK-4389","2022-099L","2025-03-24T14:03:59.398560",15.01262557,0.0001154,97.6537,206.4108,108.4451,251.6898,0,"U",53475,999,14415,0.00015366,0.00001915,0
"STARLINK-4378","2022-099M","2025-03-24T14:09:19.400832",15.01261684,0.0001335,97.6532,206.4175,104.302,255.8352,0,"U",53476,999,14369,0.0002177,0.00002738,0
"STARLINK-4412","2022-099N","2025-03-24T14:25:21.175392",15.01279109,0.0001684,97.6562,206.3901,87.0119,273.1298,0,"U",53477,999,14369,0.0012029,0.00015433,0
"STARLINK-4433","2022-099P","2025-03-25T01:10:30.563040",15.01270667,0.0000071,97.653,206.8798,212.2363,147.8857,0,"U",53478,999,14376,0.00061564,0.00007859,0
"STARLINK-4436","2022-099Q","2025-03-24T18:44:16.734336",15.0126894,0.0001702,97.6534,206.602,257.7222,102.3812,0,"U",53479,999,14348,0.0013224,0.00016971,0
"STARLINK-4442","2022-099R","2025-03-24T22:01:13.283040",15.0127032,0.0000523,97.6531,206.7361,174.1596,185.9635,0,"U",53480,999,14350,0.00037593,0.00004774,0
"STARLINK-4302","2022-099S","2025-03-24T18:41:15.403200",15.01274238,0.0002748,97.6531,206.5989,262.9707,97.1204,0,"U",53481,999,14348,0.00088391,0.00011317,0
"STARLINK-4360","2022-099T","2025-03-24T07:13:24.037824",15.01260075,0.0003778,97.6539,206.1535,243.2149,116.8689,0,"U",53482,999,14341,0.00067722,0.00008651,0
"STARLINK-4401","2022-099U","2025-03-23T21:34:51.483936",15.01305869,0.000572,97.6549,205.75,216.437,143.6466,0,"U",53483,999,14359,-0.0016802,-0.00021608,0
"STARLINK-4426","2022-099V","2025-03-24T18:38:35.108736",15.01271299,0.0003196,97.6535,206.5965,250.303,109.7849,0,"U",53484,999,14348,0.00013445,0.00001669,0
"STARLINK-4431","2022-099X","2025-03-24T18:35:55.469184",15.01269085,0.0002197,97.6535,206.5946,249.3573,110.7416,0,"U",53486,999,14348,0.0010051,0.00012878,0
"STARLINK-4432","2022-099Y","2025-03-24T13:48:20.284992",15.01263867,0.000451,97.6534,206.38,233.8765,126.2043,0,"U",53487,999,14369,0.00075488,0.00009653,0
"STARLINK-4421","2022-099Z","2025-03-24T16:00:01.999584",15.01226465,0.0003172,97.6538,206.4875,237.7957,267.5934,0,"U",53488,999,572,0.0065526,0.00085056,0
"STARLINK-4392","2022-099AA","2025-03-24T13:45:40.493376",15.01259443,0.0003683,97.6533,206.3776,240.8875,119.1981,0,"U",53489,999,14369,0.00087658,0.00011219,0
"STARLINK-4387","2022-099AB","2025-03-24T07:13:45.197184",15.01256195,0.0003446,97.6539,206.1284,227.994,132.0991,0,"U",53490,999,14365,-0.00013914,-0.00001846,0
"STARLINK-4450","2022-099AC","2025-03-24T18:12:15.467040",15.01286011,0.0000789,97.6572,206.5979,260.7635,99.35,0,"U",53491,999,14348,-0.00055233,-0.00007151,0
"STARLINK-4451","2022-099AD","2025-03-24T07:08:04.566912",15.01262613,0.0001608,97.6556,206.1326,248.4019,111.7034,0,"U",53492,999,14341,-0.00008393,-0.00001137,0
"STARLINK-4361","2022-099AE","2025-03-24T07:05:24.466848",15.01253753,0.0002585,97.6586,206.122,222.6177,137.4847,0,"U",53493,999,14341,-0.00013744,-0.00001824,0
"STARLINK-4340","2022-099AF","2025-03-23T21:35:12.994944",15.01261766,0.0002387,97.6537,205.7297,226.1844,133.9183,0,"U",53494,999,14335,-0.00011921,-0.0000159,0
"STARLINK-4429","2022-099AG","2025-03-24T14:57:18.098496",15.01270005,0.0001431,97.6576,206.4577,255.7846,104.3219,0,"U",53495,999,14371,-0.00011537,-0.00001541,0
"STARLINK-4465","2022-099AH","2025-03-24T07:02:45.091680",15.01258204,0.0001266,97.6557,206.1312,203.6461,156.4706,0,"U",53496,999,14365,-0.00016312,-0.00002153,0
